      2.10          N: GNSS NAV DATA                        RINEX VERSION / TYPE
fic2rin                                 02/24/2022 00:17:38 PGM / RUN BY / DATE
                                                            END OF HEADER
 3 22  2 23  1 59 44.0-1.338711008430e-04-1.762145984685e-11 0.000000000000e+00
    1.400000000000e+01-1.865625000000e+01 4.386254133662e-09 1.170942607237e+00
   -9.667128324509e-07 3.885071142577e-03 7.819384336472e-06 5.153674160004e+03
    2.663840000000e+05-3.911554813385e-08-1.001332477608e+00 8.754432201385e-08
    9.725147498743e-01 2.345625000000e+02 9.551330594572e-01-8.023548498715e-09
    2.857261873569e-10 1.000000000000e+00 2.198000000000e+03 0.000000000000e+00
    2.400000000000e+00 0.000000000000e+00 1.862645149231e-09 1.400000000000e+01
    2.592000000000e+05 4.000000000000e+00
16 22  2 23  1 59 44.0-4.728655330837e-04-4.774847184308e-12 0.000000000000e+00
    2.000000000000e+00 8.534375000000e+01 4.446613790741e-09-8.518158979170e-01
    4.734843969345e-06 1.278148253914e-02 5.042180418968e-06 5.153610057831e+03
    2.663840000000e+05 2.160668373108e-07 2.230199576353e+00 1.378357410431e-07
    9.700187234363e-01 2.843750000000e+02 7.098466705917e-01-8.322132364503e-09
    1.996511734156e-10 1.000000000000e+00 2.198000000000e+03 0.000000000000e+00
    2.400000000000e+00 0.000000000000e+00-1.024454832077e-08 2.000000000000e+00
    2.592000000000e+05 4.000000000000e+00
 8 22  2 23  1 59 44.0-5.725724622607e-05-1.477928890381e-12 0.000000000000e+00
    7.000000000000e+00-3.018750000000e+01 4.709839040844e-09-1.707593160018e+00
   -1.816079020500e-06 7.330163032748e-03 4.038214683533e-06 5.153722658157e+03
    2.663840000000e+05 3.725290298462e-09-3.116305710824e+00-9.313225746155e-08
    9.648969492252e-01 3.038437500000e+02 1.119839402835e-01-8.393206753608e-09
   -4.178745490094e-11 1.000000000000e+00 2.198000000000e+03 0.000000000000e+00
    2.400000000000e+00 0.000000000000e+00 5.122274160385e-09 7.000000000000e+00
    2.592000000000e+05 4.000000000000e+00
31 22  2 23  1 59 44.0-1.659817062318e-04-1.705302565824e-12 0.000000000000e+00
    8.000000000000e+00 4.334375000000e+01 4.458399995970e-09 1.197783449883e+00
    2.428889274597e-06 1.045667321887e-02 1.046434044838e-05 5.153694711685e+03
    2.663840000000e+05-8.009374141693e-08 1.116632215345e+00 1.005828380585e-07
    9.550802583549e-01 1.760625000000e+02 3.769110898483e-01-7.965331788041e-09
   -2.607251459631e-10 1.000000000000e+00 2.198000000000e+03 0.000000000000e+00
    2.400000000000e+00 0.000000000000e+00-1.350417733192e-08 8.000000000000e+00
    2.592000000000e+05 4.000000000000e+00
21 22  2 23  1 59 44.0 1.584715209901e-04 5.684341886081e-13 0.000000000000e+00
    1.400000000000e+01-6.134375000000e+01 4.519473968517e-09-1.601613872321e+00
   -2.952292561531e-06 2.457682846580e-02 1.006945967674e-05 5.153583753586e+03
    2.663840000000e+05-5.774199962616e-07-2.127770631376e+00 2.160668373108e-07
    9.594633774323e-01 1.904062500000e+02-9.994969557572e-01-8.238557454701e-09
    6.928860043404e-11 1.000000000000e+00 2.198000000000e+03 0.000000000000e+00
    2.400000000000e+00 0.000000000000e+00-1.024454832077e-08 1.400000000000e+01
    2.592000000000e+05 4.000000000000e+00
 2 22  2 23  2  0  0.0-6.513316184282e-04-6.821210263297e-13 0.000000000000e+00
    8.700000000000e+01-6.090625000000e+01 4.284107021682e-09 2.465420430520e+00
   -3.034248948097e-06 2.063638519030e-02 7.674098014832e-06 5.153701229095e+03
    2.664000000000e+05 2.589076757431e-07-2.126093799564e+00-1.341104507446e-07
    9.652113200800e-01 2.275625000000e+02-1.439496901258e+00-7.685320124431e-09
   -1.314340461842e-10 1.000000000000e+00 2.198000000000e+03 0.000000000000e+00
    2.400000000000e+00 0.000000000000e+00-1.769512891769e-08 8.700000000000e+01
    2.592000000000e+05 4.000000000000e+00
 1 22  2 23  2  0  0.0 4.247385077178e-04-9.436007530894e-12 0.000000000000e+00
    4.900000000000e+01-6.878125000000e+01 3.812301654809e-09 2.323967126125e+00
   -3.658235073090e-06 1.142994116526e-02 9.631738066673e-06 5.153675134659e+03
    2.664000000000e+05-8.754432201385e-08-2.036664335862e+00-2.253800630569e-07
    9.868720985441e-01 2.068750000000e+02 8.820978325611e-01-7.627103413757e-09
    6.321691895271e-11 1.000000000000e+00 2.198000000000e+03 0.000000000000e+00
    2.400000000000e+00 0.000000000000e+00 5.122274160385e-09 4.900000000000e+01
    2.592000000000e+05 4.000000000000e+00
10 22  2 23  2  0  0.0-3.280527889729e-04-1.068656274583e-11 0.000000000000e+00
    1.500000000000e+01-5.968750000000e+00 4.480543775490e-09 2.872926610182e-01
   -2.495944499969e-07 7.531108101830e-03 7.366761565208e-06 5.153675678253e+03
    2.664000000000e+05 9.313225746155e-09-1.004118318358e+00 1.341104507446e-07
    9.723393138124e-01 2.418125000000e+02-2.509853325351e+00-8.142124866468e-09
    2.335811581642e-10 1.000000000000e+00 2.198000000000e+03 0.000000000000e+00
    2.400000000000e+00 0.000000000000e+00 2.328306436539e-09 1.500000000000e+01
    2.592000000000e+05 4.000000000000e+00
 7 22  2 23  2  0  0.0 3.121602348983e-04 2.501110429876e-12 0.000000000000e+00
    1.000000000000e+01 2.996875000000e+01 4.620906765029e-09 1.652259872399e+00
    1.570209860802e-06 1.557861594483e-02 1.131184399128e-05 5.153695096970e+03
    2.664000000000e+05-3.743916749954e-07 1.098504515705e+00-5.215406417847e-08
    9.508642074481e-01 1.590625000000e+02-2.289303611393e+00-8.151410967557e-09
   -2.578678840896e-10 1.000000000000e+00 2.198000000000e+03 0.000000000000e+00
    2.400000000000e+00 0.000000000000e+00-1.117587089539e-08 1.000000000000e+01
    2.592000000000e+05 4.000000000000e+00
 6 22  2 23  2  0  0.0 2.101529389620e-04 1.216449163621e-11 0.000000000000e+00
    3.900000000000e+01-5.593750000000e+01 3.960879272235e-09 2.640919490063e+00
   -2.650544047356e-06 2.693343325518e-03 8.456408977509e-06 5.153675975800e+03
    2.664000000000e+05 8.568167686462e-08-2.044935054405e+00 3.166496753693e-08
    9.862478041055e-01 2.301250000000e+02-9.467544785014e-01-7.773538084778e-09
    1.964367538078e-11 1.000000000000e+00 2.198000000000e+03 0.000000000000e+00
    2.400000000000e+00 0.000000000000e+00 3.725290298462e-09 3.900000000000e+01
    2.592000000000e+05 4.000000000000e+00
 5 22  2 23  2  0  0.0-7.238192483783e-05-1.364242052659e-12 0.000000000000e+00
    8.600000000000e+01-1.471875000000e+01 4.607334771129e-09-1.303915973860e+00
   -7.450580596924e-07 5.854349350557e-03 7.543712854385e-06 5.153670959473e+03
    2.664000000000e+05 8.940696716309e-08-1.041841615491e+00 6.332993507385e-08
    9.594969470135e-01 2.335312500000e+02 1.008306067652e+00-8.115695194138e-09
    2.192948487964e-10 1.000000000000e+00 2.198000000000e+03 0.000000000000e+00
    2.400000000000e+00 0.000000000000e+00-1.117587089539e-08 8.600000000000e+01
    2.592000000000e+05 4.000000000000e+00
 4 22  2 23  2  0  0.0-1.879050396383e-04 2.387423592154e-12 0.000000000000e+00
    1.930000000000e+02-2.915625000000e+01 4.643764860017e-09-2.183841352592e+00
   -1.592561602592e-06 1.712577999569e-03 7.808208465576e-06 5.153644145966e+03
    2.664000000000e+05-1.490116119385e-08 7.986205407225e-02 4.656612873077e-08
    9.615152034248e-01 2.301250000000e+02-3.053336050811e+00-8.008190716145e-09
   -1.757216052245e-10 1.000000000000e+00 2.198000000000e+03 0.000000000000e+00
    2.400000000000e+00 0.000000000000e+00-4.190951585770e-09 7.050000000000e+02
    2.592000000000e+05 4.000000000000e+00
 9 22  2 23  2  0  0.0-3.529675304890e-04 1.705302565824e-12 0.000000000000e+00
    4.000000000000e+01-2.821875000000e+01 4.885917803802e-09-1.330508650009e+00
   -1.510605216026e-06 2.239602734335e-03 7.485970854759e-06 5.153611379623e+03
    2.664000000000e+05-1.862645149231e-09 2.686385434736e-02 5.960464477539e-08
    9.545085806908e-01 2.322187500000e+02 1.873429879714e+00-8.192126949256e-09
   -1.650068731986e-10 1.000000000000e+00 2.198000000000e+03 0.000000000000e+00
    2.400000000000e+00 0.000000000000e+00 1.396983861923e-09 4.000000000000e+01
    2.592000000000e+05 4.000000000000e+00
27 22  2 23  2  0  0.0 1.302631571889e-04 1.512034941697e-11 0.000000000000e+00
    1.100000000000e+01-3.481250000000e+01 4.463757361983e-09-1.740066627868e+00
   -1.907348632812e-06 1.028644270264e-02 4.053115844727e-06 5.153650098801e+03
    2.664000000000e+05 8.381903171539e-08-3.096825357629e+00-7.823109626770e-08
    9.736054635584e-01 3.045937500000e+02 6.419729273550e-01-8.200698734876e-09
   -3.500145795122e-11 1.000000000000e+00 2.198000000000e+03 0.000000000000e+00
    2.400000000000e+00 0.000000000000e+00 1.396983861923e-09 1.100000000000e+01
    2.592000000000e+05 4.000000000000e+00
29 22  2 23  2  0  0.0-4.835510626435e-04-4.661160346586e-12 0.000000000000e+00
    2.600000000000e+01-3.156250000000e+01 4.267677765909e-09-1.605345521793e+00
   -1.620501279831e-06 1.857696683146e-03 4.993751645088e-06 5.153748100281e+03
    2.664000000000e+05-4.842877388000e-08-3.021311071219e+00-4.097819328308e-08
    9.820514484647e-01 2.983125000000e+02 2.244684838191e+00-8.082122367123e-09
   -1.442917246152e-10 1.000000000000e+00 2.198000000000e+03 0.000000000000e+00
    2.400000000000e+00 0.000000000000e+00-1.024454832077e-08 2.600000000000e+01
    2.592000000000e+05 4.000000000000e+00
24 22  2 23  2  0  0.0 2.729711122811e-04-2.387423592154e-12 0.000000000000e+00
    1.400000000000e+01 2.496875000000e+01 4.854487923193e-09 2.619515995001e+00
    1.234933733940e-06 1.235227915458e-02 1.025386154652e-05 5.153699422836e+03
    2.664000000000e+05-3.725290298462e-09 1.015615843585e+00-1.527369022369e-07
    9.343987148285e-01 1.668437500000e+02 8.081635035281e-01-8.024262814183e-09
   -1.117903708034e-10 1.000000000000e+00 2.198000000000e+03 0.000000000000e+00
    2.400000000000e+00 0.000000000000e+00 2.328306436539e-09 1.400000000000e+01
    2.592000000000e+05 4.000000000000e+00
